[
  {
    "OBJECT_NAME": "STARLINK-34757",
    "OBJECT_ID": "25152J",
    "EPOCH": "2025-11-11T04:12:19.602432",
    "MEAN_MOTION": 15.05641726,
    "ECCENTRICITY": 0.0002567,
    "INCLINATION": 97.6006,
    "RA_OF_ASC_NODE": 168.6753,
    "ARG_OF_PERICENTER": 79.2442,
    "MEAN_ANOMALY": 280.9074,
    "EPHEMERIS_TYPE": 0,
    "CLASSIFICATION_TYPE": "U",
    "NORAD_CAT_ID": 64850,
    "ELEMENT_SET_NO": 999,
    "REV_AT_EPOCH": 1758,
    "BSTAR": 0.0012898000000000002,
    "MEAN_MOTION_DOT": 0.00018596,
    "MEAN_MOTION_DDOT": 0.0,
    "TLE_LINE1": "1 64850U 25152J   25315.17522688  .00018596  00000+0  12898-2 0  9991",
    "TLE_LINE2": "2 64850  97.6006 168.6753 0002567  79.2442 280.9074 15.05641726 17585",
    "COMMENT": "Grouped by shell and plane from TLE"
  },
  {
    "OBJECT_NAME": "STARLINK-34722",
    "OBJECT_ID": "25152K",
    "EPOCH": "2025-11-11T04:28:14.482272",
    "MEAN_MOTION": 15.05656958,
    "ECCENTRICITY": 0.0002673,
    "INCLINATION": 97.6024,
    "RA_OF_ASC_NODE": 168.6587,
    "ARG_OF_PERICENTER": 85.3378,
    "MEAN_ANOMALY": 274.8154,
    "EPHEMERIS_TYPE": 0,
    "CLASSIFICATION_TYPE": "U",
    "NORAD_CAT_ID": 64851,
    "ELEMENT_SET_NO": 999,
    "REV_AT_EPOCH": 1758,
    "BSTAR": 0.00064315,
    "MEAN_MOTION_DOT": 9.234e-05,
    "MEAN_MOTION_DDOT": 0.0,
    "TLE_LINE1": "1 64851U 25152K   25315.18627873  .00009234  00000+0  64315-3 0  9996",
    "TLE_LINE2": "2 64851  97.6024 168.6587 0002673  85.3378 274.8154 15.05656958 17589",
    "COMMENT": "Grouped by shell and plane from TLE"
  },
  {
    "OBJECT_NAME": "STARLINK-34564",
    "OBJECT_ID": "25152L",
    "EPOCH": "2025-11-11T04:04:19.014528",
    "MEAN_MOTION": 15.0565789,
    "ECCENTRICITY": 0.0002145,
    "INCLINATION": 97.6015,
    "RA_OF_ASC_NODE": 168.6833,
    "ARG_OF_PERICENTER": 72.4833,
    "MEAN_ANOMALY": 287.6629,
    "EPHEMERIS_TYPE": 0,
    "CLASSIFICATION_TYPE": "U",
    "NORAD_CAT_ID": 64852,
    "ELEMENT_SET_NO": 999,
    "REV_AT_EPOCH": 1758,
    "BSTAR": 0.00051167,
    "MEAN_MOTION_DOT": 7.331e-05,
    "MEAN_MOTION_DDOT": 0.0,
    "TLE_LINE1": "1 64852U 25152L   25315.16966452  .00007331  00000+0  51167-3 0  9991",
    "TLE_LINE2": "2 64852  97.6015 168.6833 0002145  72.4833 287.6629 15.05657890 17586",
    "COMMENT": "Grouped by shell and plane from TLE"
  },
  {
    "OBJECT_NAME": "STARLINK-34676",
    "OBJECT_ID": "25152M",
    "EPOCH": "2025-11-11T04:32:13.575264",
    "MEAN_MOTION": 15.05661011,
    "ECCENTRICITY": 0.0002545,
    "INCLINATION": 97.6019,
    "RA_OF_ASC_NODE": 168.6548,
    "ARG_OF_PERICENTER": 86.0889,
    "MEAN_ANOMALY": 274.0629,
    "EPHEMERIS_TYPE": 0,
    "CLASSIFICATION_TYPE": "U",
    "NORAD_CAT_ID": 64853,
    "ELEMENT_SET_NO": 999,
    "REV_AT_EPOCH": 1758,
    "BSTAR": 0.00055562,
    "MEAN_MOTION_DOT": 7.968e-05,
    "MEAN_MOTION_DDOT": 0.0,
    "TLE_LINE1": "1 64853U 25152M   25315.18904601  .00007968  00000+0  55562-3 0  9991",
    "TLE_LINE2": "2 64853  97.6019 168.6548 0002545  86.0889 274.0629 15.05661011 17580",
    "COMMENT": "Grouped by shell and plane from TLE"
  },
  {
    "OBJECT_NAME": "STARLINK-34682",
    "OBJECT_ID": "25152N",
    "EPOCH": "2025-11-11T04:42:56.454336",
    "MEAN_MOTION": 15.02069966,
    "ECCENTRICITY": 0.00037,
    "INCLINATION": 97.6026,
    "RA_OF_ASC_NODE": 168.8117,
    "ARG_OF_PERICENTER": 73.2907,
    "MEAN_ANOMALY": 286.8724,
    "EPHEMERIS_TYPE": 0,
    "CLASSIFICATION_TYPE": "U",
    "NORAD_CAT_ID": 64854,
    "ELEMENT_SET_NO": 999,
    "REV_AT_EPOCH": 1759,
    "BSTAR": 0.00084102,
    "MEAN_MOTION_DOT": 0.00010994,
    "MEAN_MOTION_DDOT": 0.0,
    "TLE_LINE1": "1 64854U 25152N   25315.19648674  .00010994  00000+0  84102-3 0  9993",
    "TLE_LINE2": "2 64854  97.6026 168.8117 0003700  73.2907 286.8724 15.02069966 17592",
    "COMMENT": "Grouped by shell and plane from TLE"
  },
  {
    "OBJECT_NAME": "STARLINK-34631",
    "OBJECT_ID": "25152P",
    "EPOCH": "2025-11-11T04:08:18.123936",
    "MEAN_MOTION": 15.05662419,
    "ECCENTRICITY": 0.0002416,
    "INCLINATION": 97.6017,
    "RA_OF_ASC_NODE": 168.6791,
    "ARG_OF_PERICENTER": 77.284,
    "MEAN_ANOMALY": 282.8656,
    "EPHEMERIS_TYPE": 0,
    "CLASSIFICATION_TYPE": "U",
    "NORAD_CAT_ID": 64855,
    "ELEMENT_SET_NO": 999,
    "REV_AT_EPOCH": 1758,
    "BSTAR": 0.00040317,
    "MEAN_MOTION_DOT": 5.763e-05,
    "MEAN_MOTION_DDOT": 0.0,
    "TLE_LINE1": "1 64855U 25152P   25315.17243199  .00005763  00000+0  40317-3 0  9993",
    "TLE_LINE2": "2 64855  97.6017 168.6791 0002416  77.2840 282.8656 15.05662419 17586",
    "COMMENT": "Grouped by shell and plane from TLE"
  },
  {
    "OBJECT_NAME": "STARLINK-34578",
    "OBJECT_ID": "25152Q",
    "EPOCH": "2025-11-11T03:24:48.690144",
    "MEAN_MOTION": 15.02059797,
    "ECCENTRICITY": 0.0002106,
    "INCLINATION": 97.6054,
    "RA_OF_ASC_NODE": 168.8833,
    "ARG_OF_PERICENTER": 90.9759,
    "MEAN_ANOMALY": 269.1707,
    "EPHEMERIS_TYPE": 0,
    "CLASSIFICATION_TYPE": "U",
    "NORAD_CAT_ID": 64856,
    "ELEMENT_SET_NO": 999,
    "REV_AT_EPOCH": 1759,
    "BSTAR": 0.0,
    "MEAN_MOTION_DOT": -2.878e-05,
    "MEAN_MOTION_DDOT": 0.0,
    "TLE_LINE1": "1 64856U 25152Q   25315.14223021 -.00002878  00000+0 -21500-3 0  9992",
    "TLE_LINE2": "2 64856  97.6054 168.8833 0002106  90.9759 269.1707 15.02059797 17596",
    "COMMENT": "Grouped by shell and plane from TLE"
  },
  {
    "OBJECT_NAME": "STARLINK-34683",
    "OBJECT_ID": "25152R",
    "EPOCH": "2025-11-11T03:59:54.982176",
    "MEAN_MOTION": 15.02127878,
    "ECCENTRICITY": 0.0001257,
    "INCLINATION": 97.6015,
    "RA_OF_ASC_NODE": 168.8418,
    "ARG_OF_PERICENTER": 83.2404,
    "MEAN_ANOMALY": 276.8964,
    "EPHEMERIS_TYPE": 0,
    "CLASSIFICATION_TYPE": "U",
    "NORAD_CAT_ID": 64857,
    "ELEMENT_SET_NO": 999,
    "REV_AT_EPOCH": 1759,
    "BSTAR": 0.0016108000000000001,
    "MEAN_MOTION_DOT": 0.00021171,
    "MEAN_MOTION_DDOT": 0.0,
    "TLE_LINE1": "1 64857U 25152R   25315.16660859  .00021171  00000+0  16108-2 0  9991",
    "TLE_LINE2": "2 64857  97.6015 168.8418 0001257  83.2404 276.8964 15.02127878 17597",
    "COMMENT": "Grouped by shell and plane from TLE"
  },
  {
    "OBJECT_NAME": "STARLINK-34654",
    "OBJECT_ID": "25152S",
    "EPOCH": "2025-11-11T06:31:53.457600",
    "MEAN_MOTION": 15.05656878,
    "ECCENTRICITY": 0.0002091,
    "INCLINATION": 97.6037,
    "RA_OF_ASC_NODE": 168.8493,
    "ARG_OF_PERICENTER": 74.4258,
    "MEAN_ANOMALY": 285.72,
    "EPHEMERIS_TYPE": 0,
    "CLASSIFICATION_TYPE": "U",
    "NORAD_CAT_ID": 64858,
    "ELEMENT_SET_NO": 999,
    "REV_AT_EPOCH": 1760,
    "BSTAR": 0.0007138400000000001,
    "MEAN_MOTION_DOT": 0.00010256,
    "MEAN_MOTION_DDOT": 0.0,
    "TLE_LINE1": "1 64858U 25152S   25315.27214650  .00010256  00000+0  71384-3 0  9998",
    "TLE_LINE2": "2 64858  97.6037 168.8493 0002091  74.4258 285.7200 15.05656878 17605",
    "COMMENT": "Grouped by shell and plane from TLE"
  },
  {
    "OBJECT_NAME": "STARLINK-34575",
    "OBJECT_ID": "25152T",
    "EPOCH": "2025-11-11T03:12:30.972384",
    "MEAN_MOTION": 15.05594219,
    "ECCENTRICITY": 0.0005525,
    "INCLINATION": 97.5976,
    "RA_OF_ASC_NODE": 168.7296,
    "ARG_OF_PERICENTER": 91.3037,
    "MEAN_ANOMALY": 268.8822,
    "EPHEMERIS_TYPE": 0,
    "CLASSIFICATION_TYPE": "U",
    "NORAD_CAT_ID": 64859,
    "ELEMENT_SET_NO": 999,
    "REV_AT_EPOCH": 1758,
    "BSTAR": 0.0,
    "MEAN_MOTION_DOT": -0.00017068,
    "MEAN_MOTION_DDOT": 0.0,
    "TLE_LINE1": "1 64859U 25152T   25315.13369181 -.00017068  00000+0 -11829-2 0  9991",
    "TLE_LINE2": "2 64859  97.5976 168.7296 0005525  91.3037 268.8822 15.05594219 17584",
    "COMMENT": "Grouped by shell and plane from TLE"
  },
  {
    "OBJECT_NAME": "STARLINK-34570",
    "OBJECT_ID": "25152U",
    "EPOCH": "2025-11-11T03:32:53.484000",
    "MEAN_MOTION": 15.02077982,
    "ECCENTRICITY": 0.000153,
    "INCLINATION": 97.606,
    "RA_OF_ASC_NODE": 168.8733,
    "ARG_OF_PERICENTER": 82.8516,
    "MEAN_ANOMALY": 277.2883,
    "EPHEMERIS_TYPE": 0,
    "CLASSIFICATION_TYPE": "U",
    "NORAD_CAT_ID": 64860,
    "ELEMENT_SET_NO": 999,
    "REV_AT_EPOCH": 1759,
    "BSTAR": 0.00079759,
    "MEAN_MOTION_DOT": 0.00010424,
    "MEAN_MOTION_DDOT": 0.0,
    "TLE_LINE1": "1 64860U 25152U   25315.14784125  .00010424  00000+0  79759-3 0  9997",
    "TLE_LINE2": "2 64860  97.6060 168.8733 0001530  82.8516 277.2883 15.02077982 17599",
    "COMMENT": "Grouped by shell and plane from TLE"
  },
  {
    "OBJECT_NAME": "STARLINK-34651",
    "OBJECT_ID": "25152V",
    "EPOCH": "2025-11-11T03:27:32.208192",
    "MEAN_MOTION": 15.02078724,
    "ECCENTRICITY": 0.0002513,
    "INCLINATION": 97.6055,
    "RA_OF_ASC_NODE": 169.6563,
    "ARG_OF_PERICENTER": 87.3967,
    "MEAN_ANOMALY": 272.7546,
    "EPHEMERIS_TYPE": 0,
    "CLASSIFICATION_TYPE": "U",
    "NORAD_CAT_ID": 64861,
    "ELEMENT_SET_NO": 999,
    "REV_AT_EPOCH": 1764,
    "BSTAR": 0.0005057700000000001,
    "MEAN_MOTION_DOT": 6.585e-05,
    "MEAN_MOTION_DDOT": 0.0,
    "TLE_LINE1": "1 64861U 25152V   25315.14412278  .00006585  00000+0  50577-3 0  9995",
    "TLE_LINE2": "2 64861  97.6055 169.6563 0002513  87.3967 272.7546 15.02078724 17643",
    "COMMENT": "Grouped by shell and plane from TLE"
  },
  {
    "OBJECT_NAME": "STARLINK-34684",
    "OBJECT_ID": "25152W",
    "EPOCH": "2025-11-11T03:43:56.684352",
    "MEAN_MOTION": 15.02078047,
    "ECCENTRICITY": 8.99e-05,
    "INCLINATION": 97.6035,
    "RA_OF_ASC_NODE": 168.8598,
    "ARG_OF_PERICENTER": 119.8502,
    "MEAN_ANOMALY": 240.2812,
    "EPHEMERIS_TYPE": 0,
    "CLASSIFICATION_TYPE": "U",
    "NORAD_CAT_ID": 64862,
    "ELEMENT_SET_NO": 999,
    "REV_AT_EPOCH": 1759,
    "BSTAR": 0.00037133,
    "MEAN_MOTION_DOT": 4.818e-05,
    "MEAN_MOTION_DDOT": 0.0,
    "TLE_LINE1": "1 64862U 25152W   25315.15551718  .00004818  00000+0  37133-3 0  9990",
    "TLE_LINE2": "2 64862  97.6035 168.8598 0000899 119.8502 240.2812 15.02078047 17590",
    "COMMENT": "Grouped by shell and plane from TLE"
  }
]